SL-14 R/B               
1 16792U 86046B   25336.81258433  .00000677  00000+0  75380-4 0  9998
2 16792  82.4813 171.6894 0022960 184.6494 175.4513 14.85467589112023
SL-14 R/B               
1 16882U 86055B   25336.74373425  .00000687  00000+0  76687-4 0  9991
2 16882  82.5213 217.7647 0017615 295.3162 125.6360 14.85514834104977
AJISAI (EGS)            
1 16908U 86061A   25336.72254071 -.00000097  00000+0  50656-5 0  9995
2 16908  50.0113  31.5191 0011264  40.7747 108.7083 12.44514127455922
COSMOS 1812             
1 17295U 87003A   25336.36910086  .00094511  00000+0  68863-3 0  9997
2 17295  82.4871 303.2218 0007132  99.1669 261.0402 15.72957866129023
SL-14 R/B               
1 17567U 87024B   25336.67910691  .00000641  00000+0  70437-4 0  9990
2 17567  82.5281 183.9053 0017271 218.6074 141.3908 14.86007813 73722
COSMOS 1833             
1 17589U 87027A   25336.80701463  .00000047  00000+0  50966-4 0  9992
2 17589  70.9127 169.6579 0022111 345.6921  14.3571 14.13018442996629
SL-16 R/B               
1 17590U 87027B   25336.84994907  .00000023  00000+0  35345-4 0  9993
2 17590  71.0020 120.5569 0007506 270.1286  89.8978 14.17151995  1627
SL-14 R/B               
1 17912U 87038B   25336.62426083  .00000644  00000+0  71937-4 0  9990
2 17912  82.5026  28.2280 0020605 123.2158 237.1037 14.85246144 64824
COSMOS 1844             
1 17973U 87041A   25336.80318250 -.00000147  00000+0 -50991-4 0  9994
2 17973  70.8990 238.5285 0030442 172.8806 187.2754 14.14527778989882
SL-14 R/B               
1 18153U 87055B   25336.75263762  .00000730  00000+0  81592-4 0  9998
2 18153  82.4999  80.3997 0020062 337.9758  22.0594 14.85503898 55541
COSMOS 1867             
1 18187U 87060A   25336.82212465 -.00000003  00000+0  36668-4 0  9991
2 18187  65.0098 217.9757 0013633 270.1204  89.8318 14.31483496  6078
COSMOS 1892             
1 18421U 87088A   25336.62888916  .10264805 -12447-5  19810-3 0  9996
2 18421  82.4523  54.8042 0008543 257.3802 102.6546 16.46888756 89710
