CCSDS_OMM_VERS = 2.0
CREATION_DATE  = 
ORIGINATOR     = 

OBJECT_NAME    = SL-14 R/B
OBJECT_ID      = 1986-046B
CENTER_NAME    = EARTH
REF_FRAME      = TEME
TIME_SYSTEM    = UTC
MEAN_ELEMENT_THEORY = SGP/SGP4

EPOCH          = 2025-12-02T19:30:07.286112
MEAN_MOTION    = 14.85467589
ECCENTRICITY   = .002296
INCLINATION    = 82.4813
RA_OF_ASC_NODE = 171.6894
ARG_OF_PERICENTER = 184.6494
MEAN_ANOMALY   = 175.4513

EPHEMERIS_TYPE = 0
CLASSIFICATION_TYPE = U
NORAD_CAT_ID   = 16792
ELEMENT_SET_NO = 999
REV_AT_EPOCH   = 11202
BSTAR          = .7538E-4
MEAN_MOTION_DOT = .677E-5
MEAN_MOTION_DDOT = 0

CCSDS_OMM_VERS = 2.0
CREATION_DATE  = 
ORIGINATOR     = 

OBJECT_NAME    = SL-14 R/B
OBJECT_ID      = 1986-055B
CENTER_NAME    = EARTH
REF_FRAME      = TEME
TIME_SYSTEM    = UTC
MEAN_ELEMENT_THEORY = SGP/SGP4

EPOCH          = 2025-12-02T17:50:58.639200
MEAN_MOTION    = 14.85514834
ECCENTRICITY   = .0017615
INCLINATION    = 82.5213
RA_OF_ASC_NODE = 217.7647
ARG_OF_PERICENTER = 295.3162
MEAN_ANOMALY   = 125.6360

EPHEMERIS_TYPE = 0
CLASSIFICATION_TYPE = U
NORAD_CAT_ID   = 16882
ELEMENT_SET_NO = 999
REV_AT_EPOCH   = 10497
BSTAR          = .76687E-4
MEAN_MOTION_DOT = .687E-5
MEAN_MOTION_DDOT = 0

CCSDS_OMM_VERS = 2.0
CREATION_DATE  = 
ORIGINATOR     = 

OBJECT_NAME    = AJISAI (EGS)
OBJECT_ID      = 1986-061A
CENTER_NAME    = EARTH
REF_FRAME      = TEME
TIME_SYSTEM    = UTC
MEAN_ELEMENT_THEORY = SGP/SGP4

EPOCH          = 2025-12-02T17:20:27.517344
MEAN_MOTION    = 12.44514127
ECCENTRICITY   = .0011264
INCLINATION    = 50.0113
RA_OF_ASC_NODE = 31.5191
ARG_OF_PERICENTER = 40.7747
MEAN_ANOMALY   = 108.7083

EPHEMERIS_TYPE = 0
CLASSIFICATION_TYPE = U
NORAD_CAT_ID   = 16908
ELEMENT_SET_NO = 999
REV_AT_EPOCH   = 45592
BSTAR          = .50656E-5
MEAN_MOTION_DOT = -.97E-6
MEAN_MOTION_DDOT = 0

CCSDS_OMM_VERS = 2.0
CREATION_DATE  = 
ORIGINATOR     = 

OBJECT_NAME    = COSMOS 1812
OBJECT_ID      = 1987-003A
CENTER_NAME    = EARTH
REF_FRAME      = TEME
TIME_SYSTEM    = UTC
MEAN_ELEMENT_THEORY = SGP/SGP4

EPOCH          = 2025-12-02T08:51:30.314304
MEAN_MOTION    = 15.72957866
ECCENTRICITY   = .0007132
INCLINATION    = 82.4871
RA_OF_ASC_NODE = 303.2218
ARG_OF_PERICENTER = 99.1669
MEAN_ANOMALY   = 261.0402

EPHEMERIS_TYPE = 0
CLASSIFICATION_TYPE = U
NORAD_CAT_ID   = 17295
ELEMENT_SET_NO = 999
REV_AT_EPOCH   = 12902
BSTAR          = .68863E-3
MEAN_MOTION_DOT = .94511E-3
MEAN_MOTION_DDOT = 0

CCSDS_OMM_VERS = 2.0
CREATION_DATE  = 
ORIGINATOR     = 

OBJECT_NAME    = SL-14 R/B
OBJECT_ID      = 1987-024B
CENTER_NAME    = EARTH
REF_FRAME      = TEME
TIME_SYSTEM    = UTC
MEAN_ELEMENT_THEORY = SGP/SGP4

EPOCH          = 2025-12-02T16:17:54.837024
MEAN_MOTION    = 14.86007813
ECCENTRICITY   = .0017271
INCLINATION    = 82.5281
RA_OF_ASC_NODE = 183.9053
ARG_OF_PERICENTER = 218.6074
MEAN_ANOMALY   = 141.3908

EPHEMERIS_TYPE = 0
CLASSIFICATION_TYPE = U
NORAD_CAT_ID   = 17567
ELEMENT_SET_NO = 999
REV_AT_EPOCH   = 7372
BSTAR          = .70437E-4
MEAN_MOTION_DOT = .641E-5
MEAN_MOTION_DDOT = 0

CCSDS_OMM_VERS = 2.0
CREATION_DATE  = 
ORIGINATOR     = 

OBJECT_NAME    = COSMOS 1833
OBJECT_ID      = 1987-027A
CENTER_NAME    = EARTH
REF_FRAME      = TEME
TIME_SYSTEM    = UTC
MEAN_ELEMENT_THEORY = SGP/SGP4

EPOCH          = 2025-12-02T19:22:06.064032
MEAN_MOTION    = 14.13018442
ECCENTRICITY   = .0022111
INCLINATION    = 70.9127
RA_OF_ASC_NODE = 169.6579
ARG_OF_PERICENTER = 345.6921
MEAN_ANOMALY   = 14.3571

EPHEMERIS_TYPE = 0
CLASSIFICATION_TYPE = U
NORAD_CAT_ID   = 17589
ELEMENT_SET_NO = 999
REV_AT_EPOCH   = 99662
BSTAR          = .50966E-4
MEAN_MOTION_DOT = .47E-6
MEAN_MOTION_DDOT = 0

CCSDS_OMM_VERS = 2.0
CREATION_DATE  = 
ORIGINATOR     = 

OBJECT_NAME    = SL-16 R/B
OBJECT_ID      = 1987-027B
CENTER_NAME    = EARTH
REF_FRAME      = TEME
TIME_SYSTEM    = UTC
MEAN_ELEMENT_THEORY = SGP/SGP4

EPOCH          = 2025-12-02T20:23:55.599648
MEAN_MOTION    = 14.17151995
ECCENTRICITY   = .0007506
INCLINATION    = 71.0020
RA_OF_ASC_NODE = 120.5569
ARG_OF_PERICENTER = 270.1286
MEAN_ANOMALY   = 89.8978

EPHEMERIS_TYPE = 0
CLASSIFICATION_TYPE = U
NORAD_CAT_ID   = 17590
ELEMENT_SET_NO = 999
REV_AT_EPOCH   = 162
BSTAR          = .35345E-4
MEAN_MOTION_DOT = .23E-6
MEAN_MOTION_DDOT = 0

CCSDS_OMM_VERS = 2.0
CREATION_DATE  = 
ORIGINATOR     = 

OBJECT_NAME    = SL-14 R/B
OBJECT_ID      = 1987-038B
CENTER_NAME    = EARTH
REF_FRAME      = TEME
TIME_SYSTEM    = UTC
MEAN_ELEMENT_THEORY = SGP/SGP4

EPOCH          = 2025-12-02T14:58:56.135712
MEAN_MOTION    = 14.85246144
ECCENTRICITY   = .0020605
INCLINATION    = 82.5026
RA_OF_ASC_NODE = 28.2280
ARG_OF_PERICENTER = 123.2158
MEAN_ANOMALY   = 237.1037

EPHEMERIS_TYPE = 0
CLASSIFICATION_TYPE = U
NORAD_CAT_ID   = 17912
ELEMENT_SET_NO = 999
REV_AT_EPOCH   = 6482
BSTAR          = .71937E-4
MEAN_MOTION_DOT = .644E-5
MEAN_MOTION_DDOT = 0

CCSDS_OMM_VERS = 2.0
CREATION_DATE  = 
ORIGINATOR     = 

OBJECT_NAME    = COSMOS 1844
OBJECT_ID      = 1987-041A
CENTER_NAME    = EARTH
REF_FRAME      = TEME
TIME_SYSTEM    = UTC
MEAN_ELEMENT_THEORY = SGP/SGP4

EPOCH          = 2025-12-02T19:16:34.968000
MEAN_MOTION    = 14.14527778
ECCENTRICITY   = .0030442
INCLINATION    = 70.8990
RA_OF_ASC_NODE = 238.5285
ARG_OF_PERICENTER = 172.8806
MEAN_ANOMALY   = 187.2754

EPHEMERIS_TYPE = 0
CLASSIFICATION_TYPE = U
NORAD_CAT_ID   = 17973
ELEMENT_SET_NO = 999
REV_AT_EPOCH   = 98988
BSTAR          = -.50991E-4
MEAN_MOTION_DOT = -.147E-5
MEAN_MOTION_DDOT = 0

CCSDS_OMM_VERS = 2.0
CREATION_DATE  = 
ORIGINATOR     = 

OBJECT_NAME    = SL-14 R/B
OBJECT_ID      = 1987-055B
CENTER_NAME    = EARTH
REF_FRAME      = TEME
TIME_SYSTEM    = UTC
MEAN_ELEMENT_THEORY = SGP/SGP4

EPOCH          = 2025-12-02T18:03:47.890368
MEAN_MOTION    = 14.85503898
ECCENTRICITY   = .0020062
INCLINATION    = 82.4999
RA_OF_ASC_NODE = 80.3997
ARG_OF_PERICENTER = 337.9758
MEAN_ANOMALY   = 22.0594

EPHEMERIS_TYPE = 0
CLASSIFICATION_TYPE = U
NORAD_CAT_ID   = 18153
ELEMENT_SET_NO = 999
REV_AT_EPOCH   = 5554
BSTAR          = .81592E-4
MEAN_MOTION_DOT = .73E-5
MEAN_MOTION_DDOT = 0

CCSDS_OMM_VERS = 2.0
CREATION_DATE  = 
ORIGINATOR     = 

OBJECT_NAME    = COSMOS 1867
OBJECT_ID      = 1987-060A
CENTER_NAME    = EARTH
REF_FRAME      = TEME
TIME_SYSTEM    = UTC
MEAN_ELEMENT_THEORY = SGP/SGP4

EPOCH          = 2025-12-02T19:43:51.569760
MEAN_MOTION    = 14.31483496
ECCENTRICITY   = .0013633
INCLINATION    = 65.0098
RA_OF_ASC_NODE = 217.9757
ARG_OF_PERICENTER = 270.1204
MEAN_ANOMALY   = 89.8318

EPHEMERIS_TYPE = 0
CLASSIFICATION_TYPE = U
NORAD_CAT_ID   = 18187
ELEMENT_SET_NO = 999
REV_AT_EPOCH   = 607
BSTAR          = .36668E-4
MEAN_MOTION_DOT = -.3E-7
MEAN_MOTION_DDOT = 0

CCSDS_OMM_VERS = 2.0
CREATION_DATE  = 
ORIGINATOR     = 

OBJECT_NAME    = COSMOS 1892
OBJECT_ID      = 1987-088A
CENTER_NAME    = EARTH
REF_FRAME      = TEME
TIME_SYSTEM    = UTC
MEAN_ELEMENT_THEORY = SGP/SGP4

EPOCH          = 2025-12-02T15:05:36.023424
MEAN_MOTION    = 16.46888756
ECCENTRICITY   = .0008543
INCLINATION    = 82.4523
RA_OF_ASC_NODE = 54.8042
ARG_OF_PERICENTER = 257.3802
MEAN_ANOMALY   = 102.6546

EPHEMERIS_TYPE = 0
CLASSIFICATION_TYPE = U
NORAD_CAT_ID   = 18421
ELEMENT_SET_NO = 999
REV_AT_EPOCH   = 8971
BSTAR          = .1981E-3
MEAN_MOTION_DOT = .10264805E+0
MEAN_MOTION_DDOT = -.12447E-5

